<?xml version="1.0" encoding="UTF-8"?>
<ndm xmlns:xsi="http://www.w3.org/2001/XMLSchema-instance" xsi:noNamespaceSchemaLocation="https://sanaregistry.org/r/ndmxml_unqualified/ndmxml-2.0.0-master-2.0.xsd">
<omm id="CCSDS_OMM_VERS" version="2.0">
<header><CREATION_DATE/><ORIGINATOR/></header><body><segment><metadata><OBJECT_NAME>ORBCOMM FM33 [-]</OBJECT_NAME><OBJECT_ID>1999-065D</OBJECT_ID><CENTER_NAME>EARTH</CENTER_NAME><REF_FRAME>TEME</REF_FRAME><TIME_SYSTEM>UTC</TIME_SYSTEM><MEAN_ELEMENT_THEORY>SGP4</MEAN_ELEMENT_THEORY></metadata><data><meanElements><EPOCH>2023-11-21T18:38:24.319104</EPOCH><MEAN_MOTION>14.36990765</MEAN_MOTION><ECCENTRICITY>.000914</ECCENTRICITY><INCLINATION>45.0284</INCLINATION><RA_OF_ASC_NODE>198.1662</RA_OF_ASC_NODE><ARG_OF_PERICENTER>57.0070</ARG_OF_PERICENTER><MEAN_ANOMALY>51.1925</MEAN_ANOMALY></meanElements><tleParameters><EPHEMERIS_TYPE>0</EPHEMERIS_TYPE><CLASSIFICATION_TYPE>U</CLASSIFICATION_TYPE><NORAD_CAT_ID>25983</NORAD_CAT_ID><ELEMENT_SET_NO>999</ELEMENT_SET_NO><REV_AT_EPOCH>25350</REV_AT_EPOCH><BSTAR>.39729E-3</BSTAR><MEAN_MOTION_DOT>.1047E-4</MEAN_MOTION_DOT><MEAN_MOTION_DDOT>0</MEAN_MOTION_DDOT></tleParameters></data></segment></body></omm>
<omm id="CCSDS_OMM_VERS" version="2.0">
<header><CREATION_DATE/><ORIGINATOR/></header><body><segment><metadata><OBJECT_NAME>ORBCOMM FM36 [-]</OBJECT_NAME><OBJECT_ID>1999-065E</OBJECT_ID><CENTER_NAME>EARTH</CENTER_NAME><REF_FRAME>TEME</REF_FRAME><TIME_SYSTEM>UTC</TIME_SYSTEM><MEAN_ELEMENT_THEORY>SGP4</MEAN_ELEMENT_THEORY></metadata><data><meanElements><EPOCH>2023-11-22T05:42:48.295008</EPOCH><MEAN_MOTION>14.34867073</MEAN_MOTION><ECCENTRICITY>.0005208</ECCENTRICITY><INCLINATION>45.0409</INCLINATION><RA_OF_ASC_NODE>278.5499</RA_OF_ASC_NODE><ARG_OF_PERICENTER>306.4931</ARG_OF_PERICENTER><MEAN_ANOMALY>53.5436</MEAN_ANOMALY></meanElements><tleParameters><EPHEMERIS_TYPE>0</EPHEMERIS_TYPE><CLASSIFICATION_TYPE>U</CLASSIFICATION_TYPE><NORAD_CAT_ID>25984</NORAD_CAT_ID><ELEMENT_SET_NO>999</ELEMENT_SET_NO><REV_AT_EPOCH>25263</REV_AT_EPOCH><BSTAR>.51586E-3</BSTAR><MEAN_MOTION_DOT>.1337E-4</MEAN_MOTION_DOT><MEAN_MOTION_DDOT>0</MEAN_MOTION_DDOT></tleParameters></data></segment></body></omm>
<omm id="CCSDS_OMM_VERS" version="2.0">
<header><CREATION_DATE/><ORIGINATOR/></header><body><segment><metadata><OBJECT_NAME>ORBCOMM FM35 [+]</OBJECT_NAME><OBJECT_ID>1999-065F</OBJECT_ID><CENTER_NAME>EARTH</CENTER_NAME><REF_FRAME>TEME</REF_FRAME><TIME_SYSTEM>UTC</TIME_SYSTEM><MEAN_ELEMENT_THEORY>SGP4</MEAN_ELEMENT_THEORY></metadata><data><meanElements><EPOCH>2023-11-21T21:19:49.295136</EPOCH><MEAN_MOTION>14.34544652</MEAN_MOTION><ECCENTRICITY>.0003141</ECCENTRICITY><INCLINATION>45.0409</INCLINATION><RA_OF_ASC_NODE>282.3715</RA_OF_ASC_NODE><ARG_OF_PERICENTER>16.7504</ARG_OF_PERICENTER><MEAN_ANOMALY>343.3447</MEAN_ANOMALY></meanElements><tleParameters><EPHEMERIS_TYPE>0</EPHEMERIS_TYPE><CLASSIFICATION_TYPE>U</CLASSIFICATION_TYPE><NORAD_CAT_ID>25985</NORAD_CAT_ID><ELEMENT_SET_NO>999</ELEMENT_SET_NO><REV_AT_EPOCH>25258</REV_AT_EPOCH><BSTAR>.46999E-3</BSTAR><MEAN_MOTION_DOT>.1197E-4</MEAN_MOTION_DOT><MEAN_MOTION_DDOT>0</MEAN_MOTION_DDOT></tleParameters></data></segment></body></omm>
<omm id="CCSDS_OMM_VERS" version="2.0">
<header><CREATION_DATE/><ORIGINATOR/></header><body><segment><metadata><OBJECT_NAME>ORBCOMM FM34 [-]</OBJECT_NAME><OBJECT_ID>1999-065G</OBJECT_ID><CENTER_NAME>EARTH</CENTER_NAME><REF_FRAME>TEME</REF_FRAME><TIME_SYSTEM>UTC</TIME_SYSTEM><MEAN_ELEMENT_THEORY>SGP4</MEAN_ELEMENT_THEORY></metadata><data><meanElements><EPOCH>2023-11-21T20:30:01.941696</EPOCH><MEAN_MOTION>14.34496261</MEAN_MOTION><ECCENTRICITY>.0005051</ECCENTRICITY><INCLINATION>45.0404</INCLINATION><RA_OF_ASC_NODE>283.0216</RA_OF_ASC_NODE><ARG_OF_PERICENTER>336.8676</ARG_OF_PERICENTER><MEAN_ANOMALY>23.1943</MEAN_ANOMALY></meanElements><tleParameters><EPHEMERIS_TYPE>0</EPHEMERIS_TYPE><CLASSIFICATION_TYPE>U</CLASSIFICATION_TYPE><NORAD_CAT_ID>25986</NORAD_CAT_ID><ELEMENT_SET_NO>999</ELEMENT_SET_NO><REV_AT_EPOCH>25250</REV_AT_EPOCH><BSTAR>.46736E-3</BSTAR><MEAN_MOTION_DOT>.1189E-4</MEAN_MOTION_DOT><MEAN_MOTION_DDOT>0</MEAN_MOTION_DDOT></tleParameters></data></segment></body></omm>
<omm id="CCSDS_OMM_VERS" version="2.0">
<header><CREATION_DATE/><ORIGINATOR/></header><body><segment><metadata><OBJECT_NAME>ORBCOMM FM38 [-]</OBJECT_NAME><OBJECT_ID>2008-031A</OBJECT_ID><CENTER_NAME>EARTH</CENTER_NAME><REF_FRAME>TEME</REF_FRAME><TIME_SYSTEM>UTC</TIME_SYSTEM><MEAN_ELEMENT_THEORY>SGP4</MEAN_ELEMENT_THEORY></metadata><data><meanElements><EPOCH>2023-11-21T22:42:21.537504</EPOCH><MEAN_MOTION>14.76428469</MEAN_MOTION><ECCENTRICITY>.00052</ECCENTRICITY><INCLINATION>48.4402</INCLINATION><RA_OF_ASC_NODE>156.0104</RA_OF_ASC_NODE><ARG_OF_PERICENTER>109.2753</ARG_OF_PERICENTER><MEAN_ANOMALY>250.8723</MEAN_ANOMALY></meanElements><tleParameters><EPHEMERIS_TYPE>0</EPHEMERIS_TYPE><CLASSIFICATION_TYPE>U</CLASSIFICATION_TYPE><NORAD_CAT_ID>33060</NORAD_CAT_ID><ELEMENT_SET_NO>999</ELEMENT_SET_NO><REV_AT_EPOCH>82990</REV_AT_EPOCH><BSTAR>.29241E-3</BSTAR><MEAN_MOTION_DOT>.1849E-4</MEAN_MOTION_DOT><MEAN_MOTION_DDOT>0</MEAN_MOTION_DDOT></tleParameters></data></segment></body></omm>
<omm id="CCSDS_OMM_VERS" version="2.0">
<header><CREATION_DATE/><ORIGINATOR/></header><body><segment><metadata><OBJECT_NAME>ORBCOMM FM41 [-]</OBJECT_NAME><OBJECT_ID>2008-031B</OBJECT_ID><CENTER_NAME>EARTH</CENTER_NAME><REF_FRAME>TEME</REF_FRAME><TIME_SYSTEM>UTC</TIME_SYSTEM><MEAN_ELEMENT_THEORY>SGP4</MEAN_ELEMENT_THEORY></metadata><data><meanElements><EPOCH>2023-11-21T15:27:13.070592</EPOCH><MEAN_MOTION>14.76185866</MEAN_MOTION><ECCENTRICITY>.0004256</ECCENTRICITY><INCLINATION>48.4442</INCLINATION><RA_OF_ASC_NODE>163.6734</RA_OF_ASC_NODE><ARG_OF_PERICENTER>93.3631</ARG_OF_PERICENTER><MEAN_ANOMALY>16.5082</MEAN_ANOMALY></meanElements><tleParameters><EPHEMERIS_TYPE>0</EPHEMERIS_TYPE><CLASSIFICATION_TYPE>U</CLASSIFICATION_TYPE><NORAD_CAT_ID>33061</NORAD_CAT_ID><ELEMENT_SET_NO>999</ELEMENT_SET_NO><REV_AT_EPOCH>82937</REV_AT_EPOCH><BSTAR>.25053E-3</BSTAR><MEAN_MOTION_DOT>.1545E-4</MEAN_MOTION_DOT><MEAN_MOTION_DDOT>0</MEAN_MOTION_DDOT></tleParameters></data></segment></body></omm>
<omm id="CCSDS_OMM_VERS" version="2.0">
<header><CREATION_DATE/><ORIGINATOR/></header><body><segment><metadata><OBJECT_NAME>ORBCOMM FM29 [-]</OBJECT_NAME><OBJECT_ID>2008-031C</OBJECT_ID><CENTER_NAME>EARTH</CENTER_NAME><REF_FRAME>TEME</REF_FRAME><TIME_SYSTEM>UTC</TIME_SYSTEM><MEAN_ELEMENT_THEORY>SGP4</MEAN_ELEMENT_THEORY></metadata><data><meanElements><EPOCH>2023-11-21T19:43:56.953344</EPOCH><MEAN_MOTION>14.76073395</MEAN_MOTION><ECCENTRICITY>.0006173</ECCENTRICITY><INCLINATION>48.4395</INCLINATION><RA_OF_ASC_NODE>170.8271</RA_OF_ASC_NODE><ARG_OF_PERICENTER>91.0074</ARG_OF_PERICENTER><MEAN_ANOMALY>4.4551</MEAN_ANOMALY></meanElements><tleParameters><EPHEMERIS_TYPE>0</EPHEMERIS_TYPE><CLASSIFICATION_TYPE>U</CLASSIFICATION_TYPE><NORAD_CAT_ID>33062</NORAD_CAT_ID><ELEMENT_SET_NO>999</ELEMENT_SET_NO><REV_AT_EPOCH>82931</REV_AT_EPOCH><BSTAR>.29031E-3</BSTAR><MEAN_MOTION_DOT>.1818E-4</MEAN_MOTION_DOT><MEAN_MOTION_DDOT>0</MEAN_MOTION_DDOT></tleParameters></data></segment></body></omm>
<omm id="CCSDS_OMM_VERS" version="2.0">
<header><CREATION_DATE/><ORIGINATOR/></header><body><segment><metadata><OBJECT_NAME>ORBCOMM FM39 [-]</OBJECT_NAME><OBJECT_ID>2008-031D</OBJECT_ID><CENTER_NAME>EARTH</CENTER_NAME><REF_FRAME>TEME</REF_FRAME><TIME_SYSTEM>UTC</TIME_SYSTEM><MEAN_ELEMENT_THEORY>SGP4</MEAN_ELEMENT_THEORY></metadata><data><meanElements><EPOCH>2023-11-21T17:31:38.092800</EPOCH><MEAN_MOTION>14.75210054</MEAN_MOTION><ECCENTRICITY>.0007104</ECCENTRICITY><INCLINATION>48.4409</INCLINATION><RA_OF_ASC_NODE>190.5816</RA_OF_ASC_NODE><ARG_OF_PERICENTER>64.5632</ARG_OF_PERICENTER><MEAN_ANOMALY>295.6016</MEAN_ANOMALY></meanElements><tleParameters><EPHEMERIS_TYPE>0</EPHEMERIS_TYPE><CLASSIFICATION_TYPE>U</CLASSIFICATION_TYPE><NORAD_CAT_ID>33063</NORAD_CAT_ID><ELEMENT_SET_NO>999</ELEMENT_SET_NO><REV_AT_EPOCH>82901</REV_AT_EPOCH><BSTAR>.23478E-3</BSTAR><MEAN_MOTION_DOT>.1399E-4</MEAN_MOTION_DOT><MEAN_MOTION_DDOT>0</MEAN_MOTION_DDOT></tleParameters></data></segment></body></omm>

</ndm>
