ORBCOMM FM33 [-]        
1 25983U 99065D   23325.77667036  .00001047  00000+0  39729-3 0  9997
2 25983  45.0284 198.1662 0009140  57.0070  51.1925 14.36990765253506
ORBCOMM FM36 [-]        
1 25984U 99065E   23326.23805897  .00001337  00000+0  51586-3 0  9996
2 25984  45.0409 278.5499 0005208 306.4931  53.5436 14.34867073252634
ORBCOMM FM35 [+]        
1 25985U 99065F   23325.88876499  .00001197  00000+0  46999-3 0  9999
2 25985  45.0409 282.3715 0003141  16.7504 343.3447 14.34544652252581
ORBCOMM FM34 [-]        
1 25986U 99065G   23325.85418914  .00001189  00000+0  46736-3 0  9991
2 25986  45.0404 283.0216 0005051 336.8676  23.1943 14.34496261252507
ORBCOMM FM38 [-]        
1 33060U 08031A   23325.94608261  .00001849  00000+0  29241-3 0  9997
2 33060  48.4402 156.0104 0005200 109.2753 250.8723 14.76428469829903
ORBCOMM FM41 [-]        
1 33061U 08031B   23325.64390128  .00001545  00000+0  25053-3 0  9995
2 33061  48.4442 163.6734 0004256  93.3631  16.5082 14.76185866829376
ORBCOMM FM29 [-]        
1 33062U 08031C   23325.82218696  .00001818  00000+0  29031-3 0  9998
2 33062  48.4395 170.8271 0006173  91.0074   4.4551 14.76073395829310
ORBCOMM FM39 [-]        
1 33063U 08031D   23325.73030200  .00001399  00000+0  23478-3 0  9995
2 33063  48.4409 190.5816 0007104  64.5632 295.6016 14.75210054829012
